$$SOE
2460714.500000000, A.D. 2025-Feb-08 00:00:00.0000, 4.383321099789463E+08, -2.012042433046553E+08, -2.850994941933978E+07,
2460721.500000000, A.D. 2025-Feb-15 00:00:00.0000, 4.422988710569399E+08, -1.920850737315291E+08, -2.699079248269453E+07,
2460728.500000000, A.D. 2025-Feb-22 00:00:00.0000, 4.460750346724458E+08, -1.828831817826495E+08, -2.546000403475844E+07,
2460735.500000000, A.D. 2025-Mar-01 00:00:00.0000, 4.496587575447101E+08, -1.736024428811296E+08, -2.391823151505122E+07,
2460742.500000000, A.D. 2025-Mar-08 00:00:00.0000, 4.530482784024658E+08, -1.642467761965741E+08, -2.236612883512329E+07,
2460749.500000000, A.D. 2025-Mar-15 00:00:00.0000, 4.562419191416260E+08, -1.548201411732158E+08, -2.080435594583789E+07,
2460756.500000000, A.D. 2025-Mar-22 00:00:00.0000, 4.592380837426967E+08, -1.453265354355818E+08, -1.923357831073994E+07,
2460763.500000000, A.D. 2025-Mar-29 00:00:00.0000, 4.620352585227860E+08, -1.357699949144101E+08, -1.765446668282112E+07,
2460770.500000000, A.D. 2025-Apr-05 00:00:00.0000, 4.646320140453302E+08, -1.261545930542008E+08, -1.606769695843327E+07,
2460777.500000000, A.D. 2025-Apr-12 00:00:00.0000, 4.670270067607054E+08, -1.164844389985834E+08, -1.447394992362443E+07,
2460784.500000000, A.D. 2025-Apr-19 00:00:00.0000, 4.692189801896657E+08, -1.067636756354090E+08, -1.287391094818270E+07,
2460791.500000000, A.D. 2025-Apr-26 00:00:00.0000, 4.712067659201928E+08, -9.699647770513695E+07, -1.126826966930979E+07,
2460798.500000000, A.D. 2025-May-03 00:00:00.0000, 4.729892845303308E+08, -8.718704995381701E+07, -9.657719674158994E+06,
2460805.500000000, A.D. 2025-May-10 00:00:00.0000, 4.745655464645946E+08, -7.733962532254726E+07, -8.042958183485139E+06,
2460812.500000000, A.D. 2025-May-17 00:00:00.0000, 4.759346528997471E+08, -6.745846321519963E+07, -6.424685743425611E+06,
2460819.500000000, A.D. 2025-May-24 00:00:00.0000, 4.770957967726219E+08, -5.754784789990176E+07, -4.803605946106259E+06,
2460826.500000000, A.D. 2025-May-31 00:00:00.0000, 4.780482643857890E+08, -4.761208673403473E+07, -3.180425192274492E+06,
2460833.500000000, A.D. 2025-Jun-07 00:00:00.0000, 4.787914371886492E+08, -3.765550700773446E+07, -1.555852360906597E+06,
2460840.500000000, A.D. 2025-Jun-14 00:00:00.0000, 4.793247913703829E+08, -2.768245207310310E+07, 6.940177658072673E+04,
2460847.500000000, A.D. 2025-Jun-21 00:00:00.0000, 4.796478964820912E+08, -1.769728003285966E+07, 1.694625018453108E+06,
2460854.500000000, A.D. 2025-Jun-28 00:00:00.0000, 4.797604162142460E+08, -7.704363225720869E+06, 3.319103928164009E+06,
2460861.500000000, A.D. 2025-Jul-05 00:00:00.0000, 4.796621098108400E+08, 2.291913646848013E+06, 4.942124078433767E+06,
2460868.500000000, A.D. 2025-Jul-12 00:00:00.0000, 4.793528329278983E+08, 1.228715594565595E+07, 6.562970387178458E+06,
2460875.500000000, A.D. 2025-Jul-19 00:00:00.0000, 4.788325381239895E+08, 2.227696149391326E+07, 8.180927480658728E+06,
2460882.500000000, A.D. 2025-Jul-26 00:00:00.0000, 4.781012751903803E+08, 3.225692289494161E+07, 9.795280059658503E+06,
2460889.500000000, A.D. 2025-Aug-02 00:00:00.0000, 4.771591913845549E+08, 4.222262978896162E+07, 1.140531326419385E+07,
2460896.500000000, A.D. 2025-Aug-09 00:00:00.0000, 4.760065315902168E+08, 5.216967103446402E+07, 1.301031303329224E+07,
2460903.500000000, A.D. 2025-Aug-16 00:00:00.0000, 4.746436384816786E+08, 6.209363675049265E+07, 1.460956644766821E+07,
2460910.500000000, A.D. 2025-Aug-23 00:00:00.0000, 4.730709529863261E+08, 7.199012023465642E+07, 1.620236202989161E+07,
2460917.500000000, A.D. 2025-Aug-30 00:00:00.0000, 4.712890153736162E+08, 8.185472046856076E+07, 1.778799003019520E+07,
2460924.500000000, A.D. 2025-Sep-06 00:00:00.0000, 4.692984655513119E+08, 9.168304620971514E+07, 1.936574290980085E+07,
2460931.500000000, A.D. 2025-Sep-13 00:00:00.0000, 4.671000408994262E+08, 1.014707191860326E+08, 2.093491597243153E+07,
2460938.500000000, A.D. 2025-Sep-20 00:00:00.0000, 4.646945749157944E+08, 1.112133747454351E+08, 2.249480770941629E+07,
2460945.500000000, A.D. 2025-Sep-27 00:00:00.0000, 4.620829977296431E+08, 1.209066630694060E+08, 2.404472001526929E+07,
2460952.500000000, A.D. 2025-Oct-04 00:00:00.0000, 4.592663364646665E+08, 1.305462514882123E+08, 2.558395850256868E+07,
2460959.500000000, A.D. 2025-Oct-11 00:00:00.0000, 4.562457150770824E+08, 1.401278269533713E+08, 2.711183287312265E+07,
2460966.500000000, A.D. 2025-Oct-18 00:00:00.0000, 4.530223539515557E+08, 1.496470983915094E+08, 2.862765729663780E+07,
2460973.500000000, A.D. 2025-Oct-25 00:00:00.0000, 4.495975693937957E+08, 1.590997989494565E+08, 3.013075078455724E+07,
2460980.500000000, A.D. 2025-Nov-01 00:00:00.0000, 4.459727730588349E+08, 1.684816881452085E+08, 3.162043755624695E+07,
2460987.500000000, A.D. 2025-Nov-08 00:00:00.0000, 4.421494713496312E+08, 1.777885538926778E+08, 3.309604739134794E+07,
2460994.500000000, A.D. 2025-Nov-15 00:00:00.0000, 4.381292649345779E+08, 1.870162143408939E+08, 3.455691594954466E+07,
2461001.500000000, A.D. 2025-Nov-22 00:00:00.0000, 4.339138487875606E+08, 1.961605197462338E+08, 3.600238503833777E+07,
2461008.500000000, A.D. 2025-Nov-29 00:00:00.0000, 4.295050125970275E+08, 2.052173555104005E+08, 3.743180293493551E+07,
2461015.500000000, A.D. 2025-Dec-06 00:00:00.0000, 4.249046392656577E+08, 2.141826462472408E+08, 3.884452495955217E+07,
2461022.500000000, A.D. 2025-Dec-13 00:00:00.0000, 4.201147019363560E+08, 2.230523575080488E+08, 4.023991398496501E+07,
2461029.500000000, A.D. 2025-Dec-20 00:00:00.0000, 4.151372630397542E+08, 2.318224961860705E+08, 4.161734064519536E+07,
2461036.500000000, A.D. 2025-Dec-27 00:00:00.0000, 4.099744742887118E+08, 2.404891121889662E+08, 4.297618355291611E+07,
2461043.500000000, A.D. 2026-Jan-03 00:00:00.0000, 4.046285761602387E+08, 2.490483007624788E+08, 4.431582960875063E+07,
2461050.500000000, A.D. 2026-Jan-10 00:00:00.0000, 3.991018969750736E+08, 2.574962047855394E+08, 4.563567433670026E+07,
2461057.500000000, A.D. 2026-Jan-17 00:00:00.0000, 3.933968518081247E+08, 2.658290169444002E+08, 4.693512221668909E+07,
2461064.500000000, A.D. 2026-Jan-24 00:00:00.0000, 3.875159413083690E+08, 2.740429818076968E+08, 4.821358700875743E+07,
2461071.500000000, A.D. 2026-Jan-31 00:00:00.0000, 3.814617504523743E+08, 2.821343977944095E+08, 4.947049206600274E+07,
2461078.500000000, A.D. 2026-Feb-07 00:00:00.0000, 3.752369472938502E+08, 2.900996189769484E+08, 5.070527062586388E+07,
2461085.500000000, A.D. 2026-Feb-14 00:00:00.0000, 3.688442819636127E+08, 2.979350567037692E+08, 5.191736605528839E+07,
2461092.500000000, A.D. 2026-Feb-21 00:00:00.0000, 3.622865863092906E+08, 3.056371816176744E+08, 5.310623206133099E+07,
2461099.500000000, A.D. 2026-Feb-28 00:00:00.0000, 3.555667730905411E+08, 3.132025272210974E+08, 5.427133306052697E+07,
2461106.500000000, A.D. 2026-Mar-07 00:00:00.0000, 3.486878326708440E+08, 3.206276930374199E+08, 5.541214473632546E+07,
2461113.500000000, A.D. 2026-Mar-14 00:00:00.0000, 3.416528299843704E+08, 3.279093450358512E+08, 5.652815433979626E+07,
2461120.500000000, A.D. 2026-Mar-21 00:00:00.0000, 3.344649035636499E+08, 3.350442162150378E+08, 5.761886080660750E+07,
2461127.500000000, A.D. 2026-Mar-28 00:00:00.0000, 3.271272646185021E+08, 3.420291083703465E+08, 5.868377495782265E+07,
2461134.500000000, A.D. 2026-Apr-04 00:00:00.0000, 3.196431955618778E+08, 3.488608940769056E+08, 5.972241976040126E+07,
2461141.500000000, A.D. 2026-Apr-11 00:00:00.0000, 3.120160482564154E+08, 3.555365185273777E+08, 6.073433059262457E+07,
2461148.500000000, A.D. 2026-Apr-18 00:00:00.0000, 3.042492421418084E+08, 3.620530012176160E+08, 6.171905549942560E+07,
2461155.500000000, A.D. 2026-Apr-25 00:00:00.0000, 2.963462622908098E+08, 3.684074374951112E+08, 6.267615543505356E+07,
2461162.500000000, A.D. 2026-May-02 00:00:00.0000, 2.883106574274191E+08, 3.745969999404855E+08, 6.360520448831776E+07,
2461169.500000000, A.D. 2026-May-09 00:00:00.0000, 2.801460380348894E+08, 3.806189395151791E+08, 6.450579007390592E+07,
2461176.500000000, A.D. 2026-May-16 00:00:00.0000, 2.718560749344797E+08, 3.864705866128026E+08, 6.537751306658418E+07,
2461183.500000000, A.D. 2026-May-23 00:00:00.0000, 2.634444983897622E+08, 3.921493530350354E+08, 6.621998795694244E+07,
2461190.500000000, A.D. 2026-May-30 00:00:00.0000, 2.549150956594326E+08, 3.976527352085131E+08, 6.703284324469519E+07,
2461197.500000000, A.D. 2026-Jun-06 00:00:00.0000, 2.462717066808283E+08, 4.029783153677655E+08, 6.781572183068982E+07,
2461204.500000000, A.D. 2026-Jun-13 00:00:00.0000, 2.375182215524311E+08, 4.081237609044892E+08, 6.856828108796200E+07,
2461211.500000000, A.D. 2026-Jun-20 00:00:00.0000, 2.286585793173952E+08, 4.130868248082492E+08, 6.929019289653781E+07,
2461218.500000000, A.D. 2026-Jun-27 00:00:00.0000, 2.196967663509358E+08, 4.178653468568798E+08, 6.998114376928273E+07,
2461225.500000000, A.D. 2026-Jul-04 00:00:00.0000, 2.106368143526435E+08, 4.224572547808573E+08, 7.064083500503951E+07,
2461232.500000000, A.D. 2026-Jul-11 00:00:00.0000, 2.014827981992703E+08, 4.268605652692834E+08, 7.126898283464831E+07,
2461239.500000000, A.D. 2026-Jul-18 00:00:00.0000, 1.922388337524719E+08, 4.310733848427846E+08, 7.186531855312660E+07,
2461246.500000000, A.D. 2026-Jul-25 00:00:00.0000, 1.829090756477265E+08, 4.350939105956312E+08, 7.242958863569847E+07,
2461253.500000000, A.D. 2026-Aug-01 00:00:00.0000, 1.734977151142589E+08, 4.389204307586010E+08, 7.296155482908654E+07,
2461260.500000000, A.D. 2026-Aug-08 00:00:00.0000, 1.640089780425294E+08, 4.425513250465994E+08, 7.346099419528872E+07,
2461267.500000000, A.D. 2026-Aug-15 00:00:00.0000, 1.544471237162234E+08, 4.459850652418650E+08, 7.392769910661244E+07,
2461274.500000000, A.D. 2026-Aug-22 00:00:00.0000, 1.448164434503678E+08, 4.492202172342525E+08, 7.436147736154681E+07,
2461281.500000000, A.D. 2026-Aug-29 00:00:00.0000, 1.351212568482863E+08, 4.522554431438806E+08, 7.476215251866299E+07,
$$EOE